[{"OBJECT_NAME":"GAOFEN-11 03","OBJECT_ID":"2021-107A","EPOCH":"2026-03-09T22:48:17.334432","MEAN_MOTION":15.23762465,"ECCENTRICITY":0.00095153,"INCLINATION":97.2228,"RA_OF_ASC_NODE":116.8716,"ARG_OF_PERICENTER":54.6956,"MEAN_ANOMALY":305.517,"EPHEMERIS_TYPE":0,"CLASSIFICATION_TYPE":"U","NORAD_CAT_ID":49492,"ELEMENT_SET_NO":999,"REV_AT_EPOCH":23952,"BSTAR":0.00031083054,"MEAN_MOTION_DOT":7.418e-5,"MEAN_MOTION_DDOT":0},{"OBJECT_NAME":"OBJECT AF","OBJECT_ID":"2025-313AF","EPOCH":"2026-03-09T22:40:24.568320","MEAN_MOTION":15.21283036,"ECCENTRICITY":0.00138127,"INCLINATION":97.398,"RA_OF_ASC_NODE":145.1678,"ARG_OF_PERICENTER":3.4276,"MEAN_ANOMALY":356.7052,"EPHEMERIS_TYPE":0,"CLASSIFICATION_TYPE":"U","NORAD_CAT_ID":67277,"ELEMENT_SET_NO":999,"REV_AT_EPOCH":1085,"BSTAR":0.00037771518,"MEAN_MOTION_DOT":8.4e-5,"MEAN_MOTION_DDOT":0}]
